GLOBALSTAR M057 [-]     
1 25943U 99058A   23333.48879718 -.00000068  00000+0  22876-3 0  9992
2 25943  51.9952 153.5761 0001294 298.3142  61.7577 12.24780069 97614
GLOBALSTAR M059 [-]     
1 25944U 99058B   23333.35739785 -.00000024  00000+0  77600-3 0  9995
2 25944  52.0028 297.8916 0000666   3.8829 162.7650 11.99956436506116
GLOBALSTAR M056 [-]     
1 25945U 99058C   23333.46201818  .00000049  00000+0  15970-2 0  9996
2 25945  51.9976 314.1023 0000913 118.7559  57.5297 12.04773609 94431
GLOBALSTAR M031 [-]     
1 25946U 99058D   23333.17150587  .00000042  00000+0  13436-2 0  9999
2 25946  51.9957 241.0826 0002243  90.9341  57.2821 12.15998758 95682
GLOBALSTAR M039 [-]     
1 25961U 99062A   23332.93617105 -.00000047  00000+0  31897-3 0  9996
2 25961  51.9827 193.3299 0002967 150.3506 209.7529 12.62275876108736
GLOBALSTAR M034 [-]     
1 25962U 99062B   23333.51482324 -.00000088  00000+0 -11355-3 0  9998
2 25962  51.9906  41.7711 0014205  55.8922  46.7436 11.79418109 71649
GLOBALSTAR M029 [-]     
1 25963U 99062C   23333.54154796 -.00000045  00000+0  51344-3 0  9995
2 25963  51.9777 185.9135 0003835  85.7073 286.1082 11.99871313101220
